SKYSAT-A                
1 39418U 13066C   26204.10142997  .00002435  00000+0  14029-3 0  9990
2 39418  97.3796 252.3539 0021215 185.3381 174.7628 15.13146983693911
SKYSAT-B                
1 40072U 14037D   26202.62025596  .00000881  00000+0  10248-3 0  9999
2 40072  98.3858 163.5543 0006020 153.0763 207.0765 14.88102443651088
SKYSAT-C1               
1 41601U 16040C   26204.03334042  .00009412  00000+0  26337-3 0  9995
2 41601  96.9557 233.8198 0000977 185.7159 174.4075 15.36845504563371
SKYSAT-C4               
1 41771U 16058B   26204.05312085  .00019147  00000+0  34723-3 0  9991
2 41771  96.9177 224.3470 0003562 108.3009 251.8631 15.49634823551024
SKYSAT-C5               
1 41772U 16058C   26204.10558117  .00007252  00000+0  22409-3 0  9998
2 41772  97.0456 243.1260 0003402 142.5858 217.5623 15.33797689549253
SKYSAT-C2               
1 41773U 16058D   26204.32921844  .00012159  00000+0  27930-3 0  9990
2 41773  97.0165 225.0801 0000661 273.3925  86.7248 15.42821230550625
SKYSAT-C3               
1 41774U 16058E   26204.02665170  .00025552  00000+0  39629-3 0  9994
2 41774  96.9002 233.5269 0002888 123.8234 236.3296 15.53977740551673
SKYSAT-C11              
1 42987U 17068A   26203.68512260  .00031225  00000+0  39233-3 0  9990
2 42987  97.4384 354.1178 0001506 150.3189 209.8153 15.59645696488773
SKYSAT-C10              
1 42988U 17068B   26203.82158753  .00011170  00000+0  32886-3 0  9994
2 42988  97.4541 341.0397 0001544 109.9336 250.2073 15.35228657487827
SKYSAT-C9               
1 42989U 17068C   26204.31978232  .00012642  00000+0  29466-3 0  9997
2 42989  97.4460 342.8295 0007944  17.0072 343.1440 15.42362279488323
SKYSAT-C8               
1 42990U 17068D   26204.32382803  .00010428  00000+0  28469-3 0  9995
2 42990  97.4557 341.4865 0001312 107.4214 252.7174 15.37611068487869
SKYSAT-C7               
1 42991U 17068E   26204.31857239  .00010274  00000+0  28091-3 0  9995
2 42991  97.4568 342.4736 0004958 351.7605   8.3557 15.37559306487920
SKYSAT-C6               
1 42992U 17068F   26204.08490242  .00010024  00000+0  30439-3 0  9999
2 42992  97.4607 342.0542 0004812  69.2184 290.9574 15.34270039487825
SKYSAT-C12              
1 43797U 18099AR  26204.06619602  .00019581  00000+0  35059-3 0  9999
2 43797  96.9256 225.8847 0004657  53.2214 306.9466 15.49990549427411
FLOCK 4Q-16             
1 58271U 23174R   26203.54650602  .00025149  00000+0  43973-3 0  9990
2 58271  97.3809 292.5089 0006436  54.9524 305.2331 15.50613331151051
FLOCK 4Q-11             
1 58273U 23174T   26204.29126583  .00023522  00000+0  40371-3 0  9993
2 58273  97.3845 293.9186 0005770  46.3793 313.7937 15.51157003151189
FLOCK 4Q-28             
1 58280U 23174AA  26204.05624575  .00036883  00000+0  50840-3 0  9995
2 58280  97.3873 296.4874 0004081  37.4873 322.6666 15.57129896151323
FLOCK 4Q-27             
1 58282U 23174AC  26204.18551071  .00032289  00000+0  44196-3 0  9994
2 58282  97.3801 296.0222 0003236  42.8480 317.3027 15.57347531151357
PELICAN-1               
1 58296U 23174AS  26204.20410579  .00010402  00000+0  80169-4 0  9993
2 58296  97.3969 306.7694 0004671 184.6920 175.4301 15.72167761151829
FLOCK 4Q-7              
1 58318U 23174BQ  26204.20154735  .00034887  00000+0  46951-3 0  9990
2 58318  97.3901 296.9746 0003989   9.0104 351.1222 15.57784720151359
FLOCK 4Q-2              
1 58320U 23174BS  26204.27629141  .00025885  00000+0  44458-3 0  9996
2 58320  97.3838 293.6131 0003990  22.5411 337.6015 15.51128150151190
FLOCK 4Q-9              
1 58322U 23174BU  26204.29019995  .00028196  00000+0  47433-3 0  9994
2 58322  97.3842 293.7472 0004827  21.0939 339.0512 15.51691171151180
FLOCK 4Q-4              
1 58327U 23174BZ  26204.18324418  .00025094  00000+0  44619-3 0  9993
2 58327  97.3821 292.7307 0005093  51.4770 308.6937 15.50146108151136
FLOCK 4Q-13             
1 58328U 23174CA  26204.28160317  .00023205  00000+0  37074-3 0  9990
2 58328  97.3997 296.1933 0005134  28.8459 331.3077 15.53170966151277
FLOCK 4BE-18            
1 60480U 24149N   26204.15165332  .00019129  00000+0  43649-3 0  9998
2 60480  97.3716 288.2836 0005404 123.2959 236.8807 15.42919092107851
FLOCK 4BE-7             
1 60481U 24149P   26204.19109157  .00026956  00000+0  63799-3 0  9990
2 60481  97.3746 287.6020 0004463 129.4646 230.6997 15.41756969107794
FLOCK 4BE-36            
1 60486U 24149U   26204.16869912  .00017889  00000+0  39729-3 0  9995
2 60486  97.3733 289.0528 0005176 131.0142 229.1555 15.43742236107906
FLOCK 4BE-25            
1 60487U 24149V   26204.16685219  .00014702  00000+0  37380-3 0  9994
2 60487  97.3784 287.5820 0004002 124.9681 235.1941 15.39708480107776
FLOCK 4BE-31            
1 60488U 24149W   26204.16408006  .00023010  00000+0  48239-3 0  9999
2 60488  97.3787 290.0167 0004099 131.4518 228.7083 15.45403836107938
FLOCK 4BE-20            
1 60489U 24149X   26204.14779494  .00013056  00000+0  34035-3 0  9998
2 60489  97.3681 286.3508 0005475 131.4314 228.7403 15.38963054107742
FLOCK 4BE-23            
1 60490U 24149Y   26204.14797905  .00014569  00000+0  38495-3 0  9991
2 60490  97.3764 286.7455 0005110 135.2537 224.9122 15.38524373107727
FLOCK 4BE-17            
1 60492U 24149AA  26204.21139360  .00017250  00000+0  42313-3 0  9990
2 60492  97.3762 287.8877 0004720 126.8308 233.3372 15.40764656107808
FLOCK 4BE-22            
1 60494U 24149AC  26204.22485370  .00025120  00000+0  58428-3 0  9997
2 60494  97.3723 288.1526 0005171 131.8755 228.2934 15.42290731107857
FLOCK 4BE-34            
1 60495U 24149AD  26204.17795893  .00016784  00000+0  39345-3 0  9999
2 60495  97.3766 288.9487 0005393 139.8061 220.3586 15.42137182107871
FLOCK 4BE-32            
1 60497U 24149AF  26204.18608387  .00019087  00000+0  43001-3 0  9996
2 60497  97.3709 288.5300 0005353 136.8434 223.3234 15.43301800107882
FLOCK 4BE-11            
1 60501U 24149AK  26204.22681816  .00019682  00000+0  43160-3 0  9992
2 60501  97.3687 288.8351 0005374 136.9580 223.2090 15.44098653107911
FLOCK 4BE-24            
1 60505U 24149AP  26204.20928948  .00022222  00000+0  48280-3 0  9996
2 60505  97.3699 289.0906 0005559 146.9804 213.1793 15.44349029107927
TANAGER-1               
1 60507U 24149AR  26203.53766765  .00000262  00000+0  76110-5 0  9995
2 60507  97.2319 297.6298 0003600 123.9157 236.2434 15.43942180108494
FLOCK 4BE-29            
1 60509U 24149AT  26204.19247363  .00049504  00000+0  10110-2 0  9995
2 60509  97.3794 290.6454 0004116 157.3326 202.8106 15.46012232107979
FLOCK 4BE-2             
1 60511U 24149AV  26203.20200233  .00077269  00000+0  10795-2 0  9992
2 60511  97.3818 291.5976 0005374 154.8830 205.2687 15.56583896107945
FLOCK 4BE-13            
1 60512U 24149AW  26204.16331916  .00015190  00000+0  34878-3 0  9996
2 60512  97.3710 288.9698 0005493 132.9968 227.1741 15.42782938107913
FLOCK 4BE-27            
1 60513U 24149AX  26204.18453645  .00009907  00000+0  29375-3 0  9998
2 60513  97.3815 286.0653 0004716 157.3006 202.8447 15.35024754107663
FLOCK 4BE-9             
1 60514U 24149AY  26204.18664812  .00018209  00000+0  43122-3 0  9990
2 60514  97.3782 288.8315 0004219 150.1621 209.9868 15.41818969107867
FLOCK 4BE-6             
1 60516U 24149BA  26204.17997276  .00016114  00000+0  39900-3 0  9996
2 60516  97.3776 288.1129 0004918 150.4641 209.6884 15.40491375107816
FLOCK 4BE-14            
1 60517U 24149BB  26204.19376942  .00019396  00000+0  45531-3 0  9992
2 60517  97.3682 288.2986 0005896 152.5483 207.6076 15.42062963107874
FLOCK 4BE-1             
1 60518U 24149BC  26204.17153342  .00020399  00000+0  45281-3 0  9995
2 60518  97.3765 289.6846 0005568 152.3818 207.7727 15.43728639107923
FLOCK 4BE-28            
1 60519U 24149BD  26204.19159171  .00049112  00000+0  97517-3 0  9997
2 60519  97.3734 290.5527 0005575 152.9278 207.2264 15.46827828108005
FLOCK 4BE-5             
1 60559U 24149CV  26204.20141676  .00016830  00000+0  40664-3 0  9996
2 60559  97.3834 288.5706 0004600 149.4959 210.6556 15.41228821107825
FLOCK 4BE-3             
1 60561U 24149CX  26204.22487288  .00018748  00000+0  43238-3 0  9993
2 60561  97.3685 288.5068 0005498 146.3953 213.7644 15.42603740107896
FLOCK 4BE-19            
1 60563U 24149CZ  26204.19723177  .00026078  00000+0  53587-3 0  9994
2 60563  97.3733 290.2079 0006176 152.1557 208.0024 15.45955159107989
FLOCK 4G-8              
1 62613U 25009E   26204.18527524  .00010308  00000+0  35346-3 0  9997
2 62613  97.3995 286.0520 0004889 166.3995 193.7378 15.30356602 84420
FLOCK 4G-13             
1 62621U 25009N   26204.17137927  .00098212  00000+0  17344-2 0  9996
2 62621  97.3935 288.2217 0006588 178.4244 181.7030 15.49990996 84566
FLOCK 4G-9              
1 62622U 25009P   26204.15162155  .00009302  00000+0  33676-3 0  9995
2 62622  97.3947 284.8474 0004886 176.8438 183.2833 15.28609603 84357
FLOCK 4G-7              
1 62624U 25009R   26204.17130288  .00011104  00000+0  38492-3 0  9995
2 62624  97.3932 285.2982 0003368 160.5335 199.6035 15.29988316 84405
FLOCK 4G-12             
1 62625U 25009S   26204.16707426  .00011679  00000+0  40574-3 0  9990
2 62625  97.4010 285.8510 0004953 164.0549 196.0849 15.29896309 84408
FLOCK 4G-11             
1 62629U 25009W   26204.15136385  .00011642  00000+0  40314-3 0  9995
2 62629  97.3912 285.3844 0003411 161.8330 198.3033 15.30008594 84412
PELICAN-2               
1 62631U 25009Y   26203.24842226  .00000007  00000+0  21292-5 0  9994
2 62631  97.2019 293.6933 0001274  36.2458 323.8875 15.40685259 84952
FLOCK 4G-26             
1 62633U 25009AA  26204.22932134  .00012735  00000+0  43794-3 0  9993
2 62633  97.4008 286.0769 0004359 154.3716 205.7741 15.30210618 84427
FLOCK 4G-28             
1 62634U 25009AB  26204.16784869  .00009440  00000+0  27696-3 0  9999
2 62634  97.4015 288.8647 0002724 145.3729 214.7692 15.35382292 84607
FLOCK 4G-24             
1 62637U 25009AE  26204.17370087  .00010824  00000+0  36957-3 0  9994
2 62637  97.4013 286.3309 0004275 144.7957 215.3567 15.30483228 84430
